{
  "type": "FeatureCollection",
  "features": [
    {
      "type": "Feature",
      "properties": {
        "norad_id": 66642,
        "name": "STARLINK-35926",
        "group": "last-30-days",
        "lat": 3.083944094740491,
        "lon": -146.45993499216945,
        "alt_km": 355.3989644182975,
        "timestamp": "2025-12-07T18:50:15.515461+00:00",
        "meta_object_name": "STARLINK-35926",
        "meta_object_id": "2025-271AB",
        "meta_epoch": "2025-12-07T06:00:04.999968",
        "meta_mean_motion": 15.73610406,
        "meta_eccentricity": 8.412e-05,
        "meta_inclination": 53.1579,
        "meta_ra_of_asc_node": 213.873,
        "meta_arg_of_pericenter": 69.8286,
        "meta_mean_anomaly": 144.7055,
        "meta_ephemeris_type": 0,
        "meta_classification_type": "U",
        "meta_norad_cat_id": 66642,
        "meta_element_set_no": 999,
        "meta_rev_at_epoch": 312,
        "meta_bstar": -0.015564293,
        "meta_mean_motion_dot": -0.01928169,
        "meta_mean_motion_ddot": 0,
        "tle_line1": "1 66642U 25271AB  25341.25005787 -.01928169  00000+0 -15564-1 0  9999",
        "tle_line2": "2 66642  53.1579 213.8730 0000841  69.8286 144.7055 15.73610406  3127"
      },
      "geometry": {
        "type": "Point",
        "coordinates": [
          -146.45993499216945,
          3.083944094740491
        ]
      }
    },
    {
      "type": "Feature",
      "properties": {
        "norad_id": 66643,
        "name": "STARLINK-35918",
        "group": "last-30-days",
        "lat": 0.013982345935419662,
        "lon": -148.75631417348526,
        "alt_km": 355.9438146787279,
        "timestamp": "2025-12-07T18:50:15.515471+00:00",
        "meta_object_name": "STARLINK-35918",
        "meta_object_id": "2025-271AC",
        "meta_epoch": "2025-12-07T06:00:04.999968",
        "meta_mean_motion": 15.73612314,
        "meta_eccentricity": 0.00010191,
        "meta_inclination": 53.1578,
        "meta_ra_of_asc_node": 213.8813,
        "meta_arg_of_pericenter": 87.2137,
        "meta_mean_anomaly": 123.4912,
        "meta_ephemeris_type": 0,
        "meta_classification_type": "U",
        "meta_norad_cat_id": 66643,
        "meta_element_set_no": 999,
        "meta_rev_at_epoch": 336,
        "meta_bstar": -0.015633604,
        "meta_mean_motion_dot": -0.01976221,
        "meta_mean_motion_ddot": 0,
        "tle_line1": "1 66643U 25271AC  25341.25005787 -.01976221  00000+0 -15634-1 0  9990",
        "tle_line2": "2 66643  53.1578 213.8813 0001019  87.2137 123.4912 15.73612314  3368"
      },
      "geometry": {
        "type": "Point",
        "coordinates": [
          -148.75631417348526,
          0.013982345935419662
        ]
      }
    },
    {
      "type": "Feature",
      "properties": {
        "norad_id": 66644,
        "name": "STARLINK-35938",
        "group": "last-30-days",
        "lat": 1.5506313424911515,
        "lon": -147.6079836853029,
        "alt_km": 355.6738980373748,
        "timestamp": "2025-12-07T18:50:15.515483+00:00",
        "meta_object_name": "STARLINK-35938",
        "meta_object_id": "2025-271AD",
        "meta_epoch": "2025-12-07T06:00:04.999968",
        "meta_mean_motion": 15.73606087,
        "meta_eccentricity": 7.251e-05,
        "meta_inclination": 53.1577,
        "meta_ra_of_asc_node": 213.8771,
        "meta_arg_of_pericenter": 71.5171,
        "meta_mean_anomaly": 141.1071,
        "meta_ephemeris_type": 0,
        "meta_classification_type": "U",
        "meta_norad_cat_id": 66644,
        "meta_element_set_no": 999,
        "meta_rev_at_epoch": 336,
        "meta_bstar": -0.015566573,
        "meta_mean_motion_dot": -0.01928,
        "meta_mean_motion_ddot": 0,
        "tle_line1": "1 66644U 25271AD  25341.25005787 -.01928000  00000+0 -15567-1 0  9998",
        "tle_line2": "2 66644  53.1577 213.8771 0000725  71.5171 141.1071 15.73606087  3361"
      },
      "geometry": {
        "type": "Point",
        "coordinates": [
          -147.6079836853029,
          1.5506313424911515
        ]
      }
    },
    {
      "type": "Feature",
      "properties": {
        "norad_id": 66645,
        "name": "SHENZHOU-22",
        "group": "last-30-days",
        "lat": 10.488993648563662,
        "lon": 58.88247800546002,
        "alt_km": 383.34051880130755,
        "timestamp": "2025-12-07T18:50:15.515495+00:00",
        "meta_object_name": "SHENZHOU-22",
        "meta_object_id": "2025-272A",
        "meta_epoch": "2025-12-07T06:28:07.735872",
        "meta_mean_motion": 15.58832972,
        "meta_eccentricity": 0.00093583,
        "meta_inclination": 41.4682,
        "meta_ra_of_asc_node": 49.9091,
        "meta_arg_of_pericenter": 347.392,
        "meta_mean_anomaly": 12.6683,
        "meta_ephemeris_type": 0,
        "meta_classification_type": "U",
        "meta_norad_cat_id": 66645,
        "meta_element_set_no": 999,
        "meta_rev_at_epoch": 26300,
        "meta_bstar": 0.0003547841,
        "meta_mean_motion_dot": 0.00028044,
        "meta_mean_motion_ddot": 0,
        "tle_line1": "1 66645U 25272A   25341.26953398  .00028044  00000+0  35478-3 0  9992",
        "tle_line2": "2 66645  41.4682  49.9091 0009358 347.3920  12.6683 15.58832972263006"
      },
      "geometry": {
        "type": "Point",
        "coordinates": [
          58.88247800546002,
          10.488993648563662
        ]
      }
    },
    {
      "type": "Feature",
      "properties": {
        "norad_id": 66646,
        "name": "CZ-2F R/B",
        "group": "last-30-days",
        "lat": 3.9870728361034287,
        "lon": 44.82687811158945,
        "alt_km": 135.61445244798506,
        "timestamp": "2025-12-07T18:50:15.515506+00:00",
        "meta_object_name": "CZ-2F R/B",
        "meta_object_id": "2025-272B",
        "meta_epoch": "2025-12-07T13:00:15.028704",
        "meta_mean_motion": 16.47453798,
        "meta_eccentricity": 0.002214,
        "meta_inclination": 41.4535,
        "meta_ra_of_asc_node": 41.9834,
        "meta_arg_of_pericenter": 229.6731,
        "meta_mean_anomaly": 130.2205,
        "meta_ephemeris_type": 0,
        "meta_classification_type": "U",
        "meta_norad_cat_id": 66646,
        "meta_element_set_no": 999,
        "meta_rev_at_epoch": 200,
        "meta_bstar": 0.00015075,
        "meta_mean_motion_dot": 0.11903621,
        "meta_mean_motion_ddot": 8.0762e-06,
        "tle_line1": "1 66646U 25272B   25341.54184061  .11903621  80762-5  15075-3 0  9992",
        "tle_line2": "2 66646  41.4535  41.9834 0022140 229.6731 130.2205 16.47453798  2009"
      },
      "geometry": {
        "type": "Point",
        "coordinates": [
          44.82687811158945,
          3.9870728361034287
        ]
      }
    },
    {
      "type": "Feature",
      "properties": {
        "norad_id": 66647,
        "name": "COSMOS 2597 (RODNIK-S 22)",
        "group": "last-30-days",
        "lat": -71.95286385488747,
        "lon": -94.32564840508964,
        "alt_km": 1499.5230136489117,
        "timestamp": "2025-12-07T18:50:15.515518+00:00",
        "meta_object_name": "COSMOS 2597 (RODNIK-S 22)",
        "meta_object_id": "2025-273A",
        "meta_epoch": "2025-12-07T05:41:55.534848",
        "meta_mean_motion": 12.41951141,
        "meta_eccentricity": 0.00080131,
        "meta_inclination": 82.4981,
        "meta_ra_of_asc_node": 289.866,
        "meta_arg_of_pericenter": 302.2298,
        "meta_mean_anomaly": 57.8004,
        "meta_ephemeris_type": 0,
        "meta_classification_type": "U",
        "meta_norad_cat_id": 66647,
        "meta_element_set_no": 999,
        "meta_rev_at_epoch": 145,
        "meta_bstar": 7.0086595e-05,
        "meta_mean_motion_dot": 1.9e-07,
        "meta_mean_motion_ddot": 0,
        "tle_line1": "1 66647U 25273A   25341.23744832  .00000019  00000+0  70087-4 0  9991",
        "tle_line2": "2 66647  82.4981 289.8660 0008013 302.2298  57.8004 12.41951141  1453"
      },
      "geometry": {
        "type": "Point",
        "coordinates": [
          -94.32564840508964,
          -71.95286385488747
        ]
      }
    },
    {
      "type": "Feature",
      "properties": {
        "norad_id": 66648,
        "name": "COSMOS 2598 (RODNIK-S 23)",
        "group": "last-30-days",
        "lat": -55.72941343352146,
        "lon": -81.61081677906932,
        "alt_km": 1497.1141333200012,
        "timestamp": "2025-12-07T18:50:15.515528+00:00",
        "meta_object_name": "COSMOS 2598 (RODNIK-S 23)",
        "meta_object_id": "2025-273B",
        "meta_epoch": "2025-12-07T05:37:01.004160",
        "meta_mean_motion": 12.42861705,
        "meta_eccentricity": 0.00072516,
        "meta_inclination": 82.5029,
        "meta_ra_of_asc_node": 289.8732,
        "meta_arg_of_pericenter": 264.535,
        "meta_mean_anomaly": 95.4902,
        "meta_ephemeris_type": 0,
        "meta_classification_type": "U",
        "meta_norad_cat_id": 66648,
        "meta_element_set_no": 999,
        "meta_rev_at_epoch": 145,
        "meta_bstar": 2.3127769e-05,
        "meta_mean_motion_dot": 1.3e-07,
        "meta_mean_motion_ddot": 0,
        "tle_line1": "1 66648U 25273B   25341.23403940  .00000013  00000+0  23128-4 0  9992",
        "tle_line2": "2 66648  82.5029 289.8732 0007251 264.5350  95.4902 12.42861705  1452"
      },
      "geometry": {
        "type": "Point",
        "coordinates": [
          -81.61081677906932,
          -55.72941343352146
        ]
      }
    }
  ]
}